{
    "links": {
        "self": "http://www.neowsapp.com/rest/v1/neo/54076357?api_key=iIulBulltgU6a56xZRHN4H3l9WmuAYTsLGpBGhQ2"
    },
    "id": "54076357",
    "neo_reference_id": "54076357",
    "name": "(2020 UZ4)",
    "designation": "2020 UZ4",
    "nasa_jpl_url": "http://ssd.jpl.nasa.gov/sbdb.cgi?sstr=54076357",
    "absolute_magnitude_h": 25.008,
    "estimated_diameter": {
        "kilometers": {
            "estimated_diameter_min": 0.0264822558,
            "estimated_diameter_max": 0.0592161242
        },
        "meters": {
            "estimated_diameter_min": 26.4822558231,
            "estimated_diameter_max": 59.2161242181
        },
        "miles": {
            "estimated_diameter_min": 0.0164553058,
            "estimated_diameter_max": 0.0367951823
        },
        "feet": {
            "estimated_diameter_min": 86.8840441948,
            "estimated_diameter_max": 194.2786289797
        }
    },
    "is_potentially_hazardous_asteroid": false,
    "close_approach_data": [
        {
            "close_approach_date": "2020-10-13",
            "close_approach_date_full": "2020-Oct-13 23:34",
            "epoch_date_close_approach": 1602632040000,
            "relative_velocity": {
                "kilometers_per_second": "9.9529317917",
                "kilometers_per_hour": "35830.5544501444",
                "miles_per_hour": "22263.7131248689"
            },
            "miss_distance": {
                "astronomical": "0.0571799465",
                "lunar": "22.2429991885",
                "kilometers": "8553998.203113955",
                "miles": "5315208.013944379"
            },
            "orbiting_body": "Earth"
        }
    ],
    "orbital_data": {
        "orbit_id": "7",
        "orbit_determination_date": "2020-11-12 05:43:20",
        "first_observation_date": "2020-10-20",
        "last_observation_date": "2020-11-11",
        "data_arc_in_days": 22,
        "observations_used": 43,
        "orbit_uncertainty": "8",
        "minimum_orbit_intersection": ".00587805",
        "jupiter_tisserand_invariant": "3.024",
        "epoch_osculation": "2459149.5",
        "eccentricity": ".6315763103977775",
        "semi_major_axis": "2.740531823189646",
        "inclination": "1.536301297919091",
        "ascending_node_longitude": "2.515004540943486",
        "orbital_period": "1657.10756937744",
        "perihelion_distance": "1.009676845771835",
        "perihelion_argument": "354.9106592963574",
        "aphelion_distance": "4.471386800607458",
        "perihelion_time": "2459119.205955684026",
        "mean_anomaly": "6.581260115689333",
        "mean_motion": ".2172460054209086",
        "equinox": "J2000",
        "orbit_class": {
            "orbit_class_type": "APO",
            "orbit_class_description": "Near-Earth asteroid orbits which cross the Earth’s orbit similar to that of 1862 Apollo",
            "orbit_class_range": "a (semi-major axis) > 1.0 AU; q (perihelion) < 1.017 AU"
        }
    },
    "is_sentry_object": false
}